ONEWEB-0198             
1 48216U 21031G   24049.59985460  .00000035  00000+0  58638-4 0  9994
2 48216  87.8926  98.8270 0001559  86.0721 274.0587 13.14503025136873
ONEWEB-0189             
1 48217U 21031H   24049.53641853 -.00000123  00000+0 -36530-3 0  9990
2 48217  87.8927  98.8157 0001494  85.9579 274.1722 13.14502449136608
ONEWEB-0196             
1 48218U 21031J   24049.59034178  .00000161  00000+0  39864-3 0  9996
2 48218  87.8928  98.8065 0001873  93.7224 266.4120 13.14502558136611
ONEWEB-0183             
1 48219U 21031K   24049.41272631  .00000067  00000+0  14523-3 0  9996
2 48219  87.8924  98.8594 0001820 100.4145 259.7189 13.14503699136689
ONEWEB-0185             
1 48220U 21031L   24049.59112970  .00000182  00000+0  45681-3 0  9993
2 48220  87.8925  98.7973 0001697 101.9771 258.1549 13.14502800136636
ONEWEB-0192             
1 48222U 21031N   24049.61729541 -.00000198  00000+0 -56874-3 0  9991
2 48222  87.8927  98.8196 0001802  93.1912 266.9424 13.14502445136561
ONEWEB-0219             
1 48223U 21031P   24049.59667376  .00000102  00000+0  23961-3 0  9990
2 48223  87.8926  98.7988 0001657 100.8350 259.2966 13.14503653136769
