<?xml version="1.0" encoding="UTF-8"?>
<ndm xmlns:xsi="http://www.w3.org/2001/XMLSchema-instance" xsi:noNamespaceSchemaLocation="https://sanaregistry.org/r/ndmxml_unqualified/ndmxml-2.0.0-master-2.0.xsd">
<omm id="CCSDS_OMM_VERS" version="2.0">
<header><CREATION_DATE/><ORIGINATOR/></header><body><segment><metadata><OBJECT_NAME>ONEWEB-0198</OBJECT_NAME><OBJECT_ID>2021-031G</OBJECT_ID><CENTER_NAME>EARTH</CENTER_NAME><REF_FRAME>TEME</REF_FRAME><TIME_SYSTEM>UTC</TIME_SYSTEM><MEAN_ELEMENT_THEORY>SGP4</MEAN_ELEMENT_THEORY></metadata><data><meanElements><EPOCH>2024-02-18T14:23:47.437440</EPOCH><MEAN_MOTION>13.14503025</MEAN_MOTION><ECCENTRICITY>.0001559</ECCENTRICITY><INCLINATION>87.8926</INCLINATION><RA_OF_ASC_NODE>98.8270</RA_OF_ASC_NODE><ARG_OF_PERICENTER>86.0721</ARG_OF_PERICENTER><MEAN_ANOMALY>274.0587</MEAN_ANOMALY></meanElements><tleParameters><EPHEMERIS_TYPE>0</EPHEMERIS_TYPE><CLASSIFICATION_TYPE>U</CLASSIFICATION_TYPE><NORAD_CAT_ID>48216</NORAD_CAT_ID><ELEMENT_SET_NO>999</ELEMENT_SET_NO><REV_AT_EPOCH>13687</REV_AT_EPOCH><BSTAR>.58638E-4</BSTAR><MEAN_MOTION_DOT>.35E-6</MEAN_MOTION_DOT><MEAN_MOTION_DDOT>0</MEAN_MOTION_DDOT></tleParameters></data></segment></body></omm>
<omm id="CCSDS_OMM_VERS" version="2.0">
<header><CREATION_DATE/><ORIGINATOR/></header><body><segment><metadata><OBJECT_NAME>ONEWEB-0189</OBJECT_NAME><OBJECT_ID>2021-031H</OBJECT_ID><CENTER_NAME>EARTH</CENTER_NAME><REF_FRAME>TEME</REF_FRAME><TIME_SYSTEM>UTC</TIME_SYSTEM><MEAN_ELEMENT_THEORY>SGP4</MEAN_ELEMENT_THEORY></metadata><data><meanElements><EPOCH>2024-02-18T12:52:26.560992</EPOCH><MEAN_MOTION>13.14502449</MEAN_MOTION><ECCENTRICITY>.0001494</ECCENTRICITY><INCLINATION>87.8927</INCLINATION><RA_OF_ASC_NODE>98.8157</RA_OF_ASC_NODE><ARG_OF_PERICENTER>85.9579</ARG_OF_PERICENTER><MEAN_ANOMALY>274.1722</MEAN_ANOMALY></meanElements><tleParameters><EPHEMERIS_TYPE>0</EPHEMERIS_TYPE><CLASSIFICATION_TYPE>U</CLASSIFICATION_TYPE><NORAD_CAT_ID>48217</NORAD_CAT_ID><ELEMENT_SET_NO>999</ELEMENT_SET_NO><REV_AT_EPOCH>13660</REV_AT_EPOCH><BSTAR>-.3653E-3</BSTAR><MEAN_MOTION_DOT>-.123E-5</MEAN_MOTION_DOT><MEAN_MOTION_DDOT>0</MEAN_MOTION_DDOT></tleParameters></data></segment></body></omm>
<omm id="CCSDS_OMM_VERS" version="2.0">
<header><CREATION_DATE/><ORIGINATOR/></header><body><segment><metadata><OBJECT_NAME>ONEWEB-0196</OBJECT_NAME><OBJECT_ID>2021-031J</OBJECT_ID><CENTER_NAME>EARTH</CENTER_NAME><REF_FRAME>TEME</REF_FRAME><TIME_SYSTEM>UTC</TIME_SYSTEM><MEAN_ELEMENT_THEORY>SGP4</MEAN_ELEMENT_THEORY></metadata><data><meanElements><EPOCH>2024-02-18T14:10:05.529792</EPOCH><MEAN_MOTION>13.14502558</MEAN_MOTION><ECCENTRICITY>.0001873</ECCENTRICITY><INCLINATION>87.8928</INCLINATION><RA_OF_ASC_NODE>98.8065</RA_OF_ASC_NODE><ARG_OF_PERICENTER>93.7224</ARG_OF_PERICENTER><MEAN_ANOMALY>266.4120</MEAN_ANOMALY></meanElements><tleParameters><EPHEMERIS_TYPE>0</EPHEMERIS_TYPE><CLASSIFICATION_TYPE>U</CLASSIFICATION_TYPE><NORAD_CAT_ID>48218</NORAD_CAT_ID><ELEMENT_SET_NO>999</ELEMENT_SET_NO><REV_AT_EPOCH>13661</REV_AT_EPOCH><BSTAR>.39864E-3</BSTAR><MEAN_MOTION_DOT>.161E-5</MEAN_MOTION_DOT><MEAN_MOTION_DDOT>0</MEAN_MOTION_DDOT></tleParameters></data></segment></body></omm>
<omm id="CCSDS_OMM_VERS" version="2.0">
<header><CREATION_DATE/><ORIGINATOR/></header><body><segment><metadata><OBJECT_NAME>ONEWEB-0183</OBJECT_NAME><OBJECT_ID>2021-031K</OBJECT_ID><CENTER_NAME>EARTH</CENTER_NAME><REF_FRAME>TEME</REF_FRAME><TIME_SYSTEM>UTC</TIME_SYSTEM><MEAN_ELEMENT_THEORY>SGP4</MEAN_ELEMENT_THEORY></metadata><data><meanElements><EPOCH>2024-02-18T09:54:19.553184</EPOCH><MEAN_MOTION>13.14503699</MEAN_MOTION><ECCENTRICITY>.000182</ECCENTRICITY><INCLINATION>87.8924</INCLINATION><RA_OF_ASC_NODE>98.8594</RA_OF_ASC_NODE><ARG_OF_PERICENTER>100.4145</ARG_OF_PERICENTER><MEAN_ANOMALY>259.7189</MEAN_ANOMALY></meanElements><tleParameters><EPHEMERIS_TYPE>0</EPHEMERIS_TYPE><CLASSIFICATION_TYPE>U</CLASSIFICATION_TYPE><NORAD_CAT_ID>48219</NORAD_CAT_ID><ELEMENT_SET_NO>999</ELEMENT_SET_NO><REV_AT_EPOCH>13668</REV_AT_EPOCH><BSTAR>.14523E-3</BSTAR><MEAN_MOTION_DOT>.67E-6</MEAN_MOTION_DOT><MEAN_MOTION_DDOT>0</MEAN_MOTION_DDOT></tleParameters></data></segment></body></omm>
<omm id="CCSDS_OMM_VERS" version="2.0">
<header><CREATION_DATE/><ORIGINATOR/></header><body><segment><metadata><OBJECT_NAME>ONEWEB-0185</OBJECT_NAME><OBJECT_ID>2021-031L</OBJECT_ID><CENTER_NAME>EARTH</CENTER_NAME><REF_FRAME>TEME</REF_FRAME><TIME_SYSTEM>UTC</TIME_SYSTEM><MEAN_ELEMENT_THEORY>SGP4</MEAN_ELEMENT_THEORY></metadata><data><meanElements><EPOCH>2024-02-18T14:11:13.606080</EPOCH><MEAN_MOTION>13.14502800</MEAN_MOTION><ECCENTRICITY>.0001697</ECCENTRICITY><INCLINATION>87.8925</INCLINATION><RA_OF_ASC_NODE>98.7973</RA_OF_ASC_NODE><ARG_OF_PERICENTER>101.9771</ARG_OF_PERICENTER><MEAN_ANOMALY>258.1549</MEAN_ANOMALY></meanElements><tleParameters><EPHEMERIS_TYPE>0</EPHEMERIS_TYPE><CLASSIFICATION_TYPE>U</CLASSIFICATION_TYPE><NORAD_CAT_ID>48220</NORAD_CAT_ID><ELEMENT_SET_NO>999</ELEMENT_SET_NO><REV_AT_EPOCH>13663</REV_AT_EPOCH><BSTAR>.45681E-3</BSTAR><MEAN_MOTION_DOT>.182E-5</MEAN_MOTION_DOT><MEAN_MOTION_DDOT>0</MEAN_MOTION_DDOT></tleParameters></data></segment></body></omm>
<omm id="CCSDS_OMM_VERS" version="2.0">
<header><CREATION_DATE/><ORIGINATOR/></header><body><segment><metadata><OBJECT_NAME>ONEWEB-0192</OBJECT_NAME><OBJECT_ID>2021-031N</OBJECT_ID><CENTER_NAME>EARTH</CENTER_NAME><REF_FRAME>TEME</REF_FRAME><TIME_SYSTEM>UTC</TIME_SYSTEM><MEAN_ELEMENT_THEORY>SGP4</MEAN_ELEMENT_THEORY></metadata><data><meanElements><EPOCH>2024-02-18T14:48:54.323424</EPOCH><MEAN_MOTION>13.14502445</MEAN_MOTION><ECCENTRICITY>.0001802</ECCENTRICITY><INCLINATION>87.8927</INCLINATION><RA_OF_ASC_NODE>98.8196</RA_OF_ASC_NODE><ARG_OF_PERICENTER>93.1912</ARG_OF_PERICENTER><MEAN_ANOMALY>266.9424</MEAN_ANOMALY></meanElements><tleParameters><EPHEMERIS_TYPE>0</EPHEMERIS_TYPE><CLASSIFICATION_TYPE>U</CLASSIFICATION_TYPE><NORAD_CAT_ID>48222</NORAD_CAT_ID><ELEMENT_SET_NO>999</ELEMENT_SET_NO><REV_AT_EPOCH>13656</REV_AT_EPOCH><BSTAR>-.56874E-3</BSTAR><MEAN_MOTION_DOT>-.198E-5</MEAN_MOTION_DOT><MEAN_MOTION_DDOT>0</MEAN_MOTION_DDOT></tleParameters></data></segment></body></omm>
<omm id="CCSDS_OMM_VERS" version="2.0">
<header><CREATION_DATE/><ORIGINATOR/></header><body><segment><metadata><OBJECT_NAME>ONEWEB-0219</OBJECT_NAME><OBJECT_ID>2021-031P</OBJECT_ID><CENTER_NAME>EARTH</CENTER_NAME><REF_FRAME>TEME</REF_FRAME><TIME_SYSTEM>UTC</TIME_SYSTEM><MEAN_ELEMENT_THEORY>SGP4</MEAN_ELEMENT_THEORY></metadata><data><meanElements><EPOCH>2024-02-18T14:19:12.612864</EPOCH><MEAN_MOTION>13.14503653</MEAN_MOTION><ECCENTRICITY>.0001657</ECCENTRICITY><INCLINATION>87.8926</INCLINATION><RA_OF_ASC_NODE>98.7988</RA_OF_ASC_NODE><ARG_OF_PERICENTER>100.8350</ARG_OF_PERICENTER><MEAN_ANOMALY>259.2966</MEAN_ANOMALY></meanElements><tleParameters><EPHEMERIS_TYPE>0</EPHEMERIS_TYPE><CLASSIFICATION_TYPE>U</CLASSIFICATION_TYPE><NORAD_CAT_ID>48223</NORAD_CAT_ID><ELEMENT_SET_NO>999</ELEMENT_SET_NO><REV_AT_EPOCH>13676</REV_AT_EPOCH><BSTAR>.23961E-3</BSTAR><MEAN_MOTION_DOT>.102E-5</MEAN_MOTION_DOT><MEAN_MOTION_DDOT>0</MEAN_MOTION_DDOT></tleParameters></data></segment></body></omm>

</ndm>
